STARLINK-1559           
1 46077U 20055BC  26068.23360559  .00042685  00000+0  14779-2 0  9995
2 46077  53.0254  76.0659 0004229  33.9710 326.1559 15.29461733309518
STARLINK-2454           
1 48116U 21027AA  26068.57346489 -.00000342  00000+0  57234-6 0  9996
2 48116  53.1618 165.8028 0001501  80.8170 279.3000 15.30189450272498
